GOES 1 (SMS-C) [-]      
1 08366U 75100A   22344.25057561 -.00000180  00000+0  00000+0 0  9990
2 08366   7.8517 293.5305 0002831 295.6421 213.8666  1.00243568172183
GOES 2 [-]              
1 10061U 77048A   22345.10005302  .00000109  00000+0  00000+0 0  9999
2 10061   9.4515 305.2472 0011802  22.1007  15.5510  0.99395485110754
GOES 3 [-]              
1 10953U 78062A   22344.80103582  .00000100  00000+0  00000+0 0  9992
2 10953   9.7954 309.8646 0000957 188.3066 295.3891  0.99357460115774
GOES 4 [-]              
1 11964U 80074A   22345.02341035  .00000098  00000+0  00000+0 0  9999
2 11964  10.7671 313.6914 0031518  77.2791 107.0142  0.99228066114882
GOES 5 [-]              
1 12472U 81049A   22344.40275264 -.00000275  00000+0  00000+0 0  9996
2 12472  11.6557 325.1869 0001461 240.8613 311.5028  1.00269642109968
GOES 6 [-]              
1 14050U 83041A   22344.41031566 -.00000246  00000+0  00000+0 0  9998
2 14050  12.2396 330.5289 0003199 168.6032  11.1378  1.00254461203136
GOES 7 [-]              
1 17561U 87022A   22344.70948703 -.00000012  00000+0  00000+0 0  9994
2 17561  14.0920 347.1185 0003758  62.5414 295.0070  0.99905769114128
GOES 8 [-]              
1 23051U 94022A   22344.32026816  .00000008  00000+0  00000+0 0  9997
2 23051  13.3267  22.9515 0003543  29.6723 358.2268  0.98904650111427
GOES 9 [-]              
1 23581U 95025A   22344.71811635  .00000037  00000+0  00000+0 0  9995
2 23581  12.8221  23.3411 0005388 127.2421 240.8133  0.98798140100079
GOES 10 [-]             
1 24786U 97019A   22338.02822125 -.00000252  00000+0  00000+0 0  9991
2 24786  11.6125  29.6267 0028196 205.0470 167.8545  0.99125587 93263
GOES 11 [-]             
1 26352U 00022A   22344.85124324 -.00000118  00000+0  00000+0 0  9995
2 26352   9.0576  57.9084 0002660 196.2798 237.8372  0.99041287 39752
GOES 12 [-]             
1 26871U 01031A   22344.80500141  .00000037  00000+0  00000+0 0  9991
2 26871   9.8343  47.0187 0004264 303.2179  98.4154  0.99133706 78038
EWS-G1 (GOES 13) [+]    
1 29155U 06018A   22345.49736963  .00000053  00000+0  00000+0 0  9996
2 29155   1.0270  93.5280 0006779 151.3475  75.7645  1.00274972 60637
GOES 14 [B]             
1 35491U 09033A   22345.37059775 -.00000078  00000+0  00000+0 0  9990
2 35491   0.1700 259.7418 0018122 325.6456 243.8958  1.00271549 49284
GOES 15 [B]             
1 36411U 10008A   22344.45182081  .00000066  00000+0  00000+0 0  9998
2 36411   0.1296 283.8728 0003075 288.7811 261.5203  1.00282454 46772
GOES 16 [+]             
1 41866U 16071A   22345.33810627 -.00000232  00000+0  00000+0 0  9992
2 41866   0.0666 253.3072 0001090  42.6820 190.5722  1.00270819 22232
GOES 17 [+]             
1 43226U 18022A   22344.60837576  .00000114  00000+0  00000+0 0  9991
2 43226   0.0455 135.6691 0000692 128.8942 256.4477  1.00272633 17541
GOES 18 [+]             
1 51850U 22021A   22345.46928964  .00000112  00000+0  00000+0 0  9992
2 51850   0.0193 164.0008 0001749  91.6276 216.5617  1.00273441  2939
